NUSAT-48 (HENRIETTA LE*)
1 60498U 24149AG  26068.80506098  .00012988  00000+0  45212-3 0  9999
2 60498  97.3923 150.8264 0002754 263.3026  96.7901 15.29812597 86946
STARLINK-34342          
1 64271U 25120R   26068.54973839  .00034198  00000+0  11616-2 0  9991
2 64271  53.1578 117.4182 0001218  79.6641 280.4497 15.30196937 43847
